ONEWEB-0086             
1 45456U 20020AJ  23357.66923444 -.00000297  00000+0 -87378-3 0  9991
2 45456  87.8968 201.2061 0001034  98.3207 261.8039 13.11416007183792
ONEWEB-0088             
1 45457U 20020AK  23357.64652061  .00000542  00000+0  14941-2 0  9990
2 45457  87.8956 201.1854 0001305  86.6462 273.4815 13.11416315183729
ONEWEB-0102             
1 47258U 20100A   23357.90452480 -.00000611  00000+0 -17329-2 0  9994
2 47258  87.9002 170.9577 0001734  91.9451 268.1876 13.12443105145859
ONEWEB-0109             
1 47259U 20100B   23357.91248612 -.00000265  00000+0 -77143-3 0  9992
2 47259  87.8996 170.9195 0001631  95.4090 264.7225 13.12443309145688
ONEWEB-0110             
1 47260U 20100C   23357.93630161  .00000509  00000+0  13797-2 0  9993
2 47260  87.8995 170.9295 0001611  98.6511 261.4800 13.12443260145859
ONEWEB-0111             
1 47261U 20100D   23357.89342400 -.00000306  00000+0 -88720-3 0  9991
2 47261  87.8998 170.9263 0001543  91.2628 268.8677 13.12443509145680
ONEWEB-0114             
1 47262U 20100E   23357.92359464  .00000209  00000+0  54562-3 0  9991
2 47262  87.8997 170.9428 0002030  87.0443 273.0917 13.12443560145641
ONEWEB-0117             
1 47263U 20100F   23357.91563844 -.00000376  00000+0 -10810-2 0  9994
2 47263  87.9003 170.9121 0001458  94.8502 265.2793 13.12443784145650
